[{"OBJECT_NAME":"SL-8 R/B","OBJECT_ID":"1979-089B","EPOCH":"2026-03-19T07:36:36.022176","MEAN_MOTION":14.42356621,"ECCENTRICITY":0.00170044,"INCLINATION":74.0671,"RA_OF_ASC_NODE":73.2201,"ARG_OF_PERICENTER":244.8367,"MEAN_ANOMALY":115.1027,"EPHEMERIS_TYPE":0,"CLASSIFICATION_TYPE":"U","NORAD_CAT_ID":11574,"ELEMENT_SET_NO":999,"REV_AT_EPOCH":43749,"BSTAR":7.0096929e-5,"MEAN_MOTION_DOT":2.05e-6,"MEAN_MOTION_DDOT":0},{"OBJECT_NAME":"SL-14 R/B","OBJECT_ID":"1980-005B","EPOCH":"2026-03-19T02:57:58.536288","MEAN_MOTION":14.90940708,"ECCENTRICITY":0.00168939,"INCLINATION":82.5127,"RA_OF_ASC_NODE":298.2865,"ARG_OF_PERICENTER":128.5269,"MEAN_ANOMALY":231.7468,"EPHEMERIS_TYPE":0,"CLASSIFICATION_TYPE":"U","NORAD_CAT_ID":11672,"ELEMENT_SET_NO":999,"REV_AT_EPOCH":47789,"BSTAR":4.7802042e-5,"MEAN_MOTION_DOT":4.98e-6,"MEAN_MOTION_DDOT":0},{"OBJECT_NAME":"SL-8 R/B","OBJECT_ID":"1981-003B","EPOCH":"2026-03-19T06:30:34.888032","MEAN_MOTION":15.11367258,"ECCENTRICITY":0.02614369,"INCLINATION":82.9361,"RA_OF_ASC_NODE":281.1625,"ARG_OF_PERICENTER":145.2437,"MEAN_ANOMALY":216.6194,"EPHEMERIS_TYPE":0,"CLASSIFICATION_TYPE":"U","NORAD_CAT_ID":12139,"ELEMENT_SET_NO":999,"REV_AT_EPOCH":31612,"BSTAR":0.00040901331,"MEAN_MOTION_DOT":0.00016126,"MEAN_MOTION_DDOT":0},{"OBJECT_NAME":"SL-3 R/B","OBJECT_ID":"1981-046B","EPOCH":"2026-03-19T06:11:18.977856","MEAN_MOTION":15.42222626,"ECCENTRICITY":0.00187946,"INCLINATION":81.228,"RA_OF_ASC_NODE":278.2515,"ARG_OF_PERICENTER":348.9708,"MEAN_ANOMALY":11.112,"EPHEMERIS_TYPE":0,"CLASSIFICATION_TYPE":"U","NORAD_CAT_ID":12465,"ELEMENT_SET_NO":999,"REV_AT_EPOCH":43990,"BSTAR":0.00018596492,"MEAN_MOTION_DOT":8.065e-5,"MEAN_MOTION_DDOT":0},{"OBJECT_NAME":"SL-3 R/B","OBJECT_ID":"1981-103B","EPOCH":"2026-03-19T07:24:24.128640","MEAN_MOTION":15.21487811,"ECCENTRICITY":0.00124295,"INCLINATION":81.1603,"RA_OF_ASC_NODE":202.1485,"ARG_OF_PERICENTER":252.1378,"MEAN_ANOMALY":107.8499,"EPHEMERIS_TYPE":0,"CLASSIFICATION_TYPE":"U","NORAD_CAT_ID":12904,"ELEMENT_SET_NO":999,"REV_AT_EPOCH":97469,"BSTAR":0.00018152305,"MEAN_MOTION_DOT":4.114e-5,"MEAN_MOTION_DDOT":0},{"OBJECT_NAME":"SL-3 R/B","OBJECT_ID":"1982-013B","EPOCH":"2026-03-19T05:55:41.432448","MEAN_MOTION":15.22104589,"ECCENTRICITY":0.00231642,"INCLINATION":81.1754,"RA_OF_ASC_NODE":149.5697,"ARG_OF_PERICENTER":145.7053,"MEAN_ANOMALY":214.568,"EPHEMERIS_TYPE":0,"CLASSIFICATION_TYPE":"U","NORAD_CAT_ID":13068,"ELEMENT_SET_NO":999,"REV_AT_EPOCH":40580,"BSTAR":0.00013490248,"MEAN_MOTION_DOT":3.137e-5,"MEAN_MOTION_DDOT":0},{"OBJECT_NAME":"SL-3 R/B","OBJECT_ID":"1982-039B","EPOCH":"2026-03-19T07:56:25.616256","MEAN_MOTION":15.10133715,"ECCENTRICITY":0.002924,"INCLINATION":81.1579,"RA_OF_ASC_NODE":204.8458,"ARG_OF_PERICENTER":292.8259,"MEAN_ANOMALY":66.9879,"EPHEMERIS_TYPE":0,"CLASSIFICATION_TYPE":"U","NORAD_CAT_ID":13154,"ELEMENT_SET_NO":999,"REV_AT_EPOCH":38309,"BSTAR":0.00012349026,"MEAN_MOTION_DOT":2.056e-5,"MEAN_MOTION_DDOT":0},{"OBJECT_NAME":"SL-3 R/B","OBJECT_ID":"1982-079B","EPOCH":"2026-03-19T07:30:43.411680","MEAN_MOTION":15.24931945,"ECCENTRICITY":0.00253802,"INCLINATION":81.1491,"RA_OF_ASC_NODE":181.7153,"ARG_OF_PERICENTER":132.8575,"MEAN_ANOMALY":227.4796,"EPHEMERIS_TYPE":0,"CLASSIFICATION_TYPE":"U","NORAD_CAT_ID":13403,"ELEMENT_SET_NO":999,"REV_AT_EPOCH":37916,"BSTAR":0.00019620178,"MEAN_MOTION_DOT":4.956e-5,"MEAN_MOTION_DDOT":0},{"OBJECT_NAME":"SL-14 R/B","OBJECT_ID":"1982-092B","EPOCH":"2026-03-19T06:28:17.050656","MEAN_MOTION":14.86675043,"ECCENTRICITY":0.00187372,"INCLINATION":82.5675,"RA_OF_ASC_NODE":132.4387,"ARG_OF_PERICENTER":269.3047,"MEAN_ANOMALY":158.97,"EPHEMERIS_TYPE":0,"CLASSIFICATION_TYPE":"U","NORAD_CAT_ID":13553,"ELEMENT_SET_NO":999,"REV_AT_EPOCH":33035,"BSTAR":4.1295129e-5,"MEAN_MOTION_DOT":3.92e-6,"MEAN_MOTION_DDOT":0},{"OBJECT_NAME":"SL-3 R/B","OBJECT_ID":"1983-010B","EPOCH":"2026-03-19T04:58:35.671584","MEAN_MOTION":15.46676912,"ECCENTRICITY":0.00170749,"INCLINATION":81.1066,"RA_OF_ASC_NODE":350.5776,"ARG_OF_PERICENTER":19.6753,"MEAN_ANOMALY":340.5146,"EPHEMERIS_TYPE":0,"CLASSIFICATION_TYPE":"U","NORAD_CAT_ID":13819,"ELEMENT_SET_NO":999,"REV_AT_EPOCH":35941,"BSTAR":0.00022547197,"MEAN_MOTION_DOT":0.00011351,"MEAN_MOTION_DDOT":0},{"OBJECT_NAME":"SL-3 R/B","OBJECT_ID":"1983-075B","EPOCH":"2026-03-19T05:56:52.513728","MEAN_MOTION":15.38633825,"ECCENTRICITY":0.0021133,"INCLINATION":97.6136,"RA_OF_ASC_NODE":83.1882,"ARG_OF_PERICENTER":190.2307,"MEAN_ANOMALY":169.8511,"EPHEMERIS_TYPE":0,"CLASSIFICATION_TYPE":"U","NORAD_CAT_ID":14208,"ELEMENT_SET_NO":999,"REV_AT_EPOCH":33162,"BSTAR":0.00020353947,"MEAN_MOTION_DOT":7.735e-5,"MEAN_MOTION_DDOT":0},{"OBJECT_NAME":"COSMOS 1536","OBJECT_ID":"1984-013A","EPOCH":"2026-03-19T07:21:46.771776","MEAN_MOTION":15.23947072,"ECCENTRICITY":0.001262,"INCLINATION":82.541,"RA_OF_ASC_NODE":98.2869,"ARG_OF_PERICENTER":245.0757,"MEAN_ANOMALY":114.917,"EPHEMERIS_TYPE":0,"CLASSIFICATION_TYPE":"U","NORAD_CAT_ID":14699,"ELEMENT_SET_NO":999,"REV_AT_EPOCH":27408,"BSTAR":0.00018998806,"MEAN_MOTION_DOT":4.635e-5,"MEAN_MOTION_DDOT":0},{"OBJECT_NAME":"SL-14 R/B","OBJECT_ID":"1984-027B","EPOCH":"2026-03-18T22:02:24.278784","MEAN_MOTION":14.8598606,"ECCENTRICITY":0.00167256,"INCLINATION":82.5397,"RA_OF_ASC_NODE":236.3556,"ARG_OF_PERICENTER":305.8119,"MEAN_ANOMALY":54.1543,"EPHEMERIS_TYPE":0,"CLASSIFICATION_TYPE":"U","NORAD_CAT_ID":14820,"ELEMENT_SET_NO":999,"REV_AT_EPOCH":24900,"BSTAR":5.0487358e-5,"MEAN_MOTION_DOT":4.66e-6,"MEAN_MOTION_DDOT":0},{"OBJECT_NAME":"SL-8 R/B","OBJECT_ID":"1985-006B","EPOCH":"2026-03-19T05:05:08.326752","MEAN_MOTION":14.37790192,"ECCENTRICITY":0.00180524,"INCLINATION":74.0436,"RA_OF_ASC_NODE":243.6247,"ARG_OF_PERICENTER":158.8492,"MEAN_ANOMALY":13.8164,"EPHEMERIS_TYPE":0,"CLASSIFICATION_TYPE":"U","NORAD_CAT_ID":15483,"ELEMENT_SET_NO":999,"REV_AT_EPOCH":15539,"BSTAR":0.00011011312,"MEAN_MOTION_DOT":3.06e-6,"MEAN_MOTION_DDOT":0},{"OBJECT_NAME":"SL-12 R/B(2)","OBJECT_ID":"1985-042D","EPOCH":"2026-03-19T08:08:58.130880","MEAN_MOTION":14.21985069,"ECCENTRICITY":0.00329675,"INCLINATION":71.1068,"RA_OF_ASC_NODE":67.3392,"ARG_OF_PERICENTER":112.198,"MEAN_ANOMALY":350.0116,"EPHEMERIS_TYPE":0,"CLASSIFICATION_TYPE":"U","NORAD_CAT_ID":15772,"ELEMENT_SET_NO":999,"REV_AT_EPOCH":11576,"BSTAR":2.4517455e-5,"MEAN_MOTION_DOT":7.0e-8,"MEAN_MOTION_DDOT":0},{"OBJECT_NAME":"SL-14 R/B","OBJECT_ID":"1985-069B","EPOCH":"2026-03-19T07:18:04.427424","MEAN_MOTION":14.86443787,"ECCENTRICITY":0.00193423,"INCLINATION":82.5299,"RA_OF_ASC_NODE":15.8941,"ARG_OF_PERICENTER":156.0973,"MEAN_ANOMALY":204.1146,"EPHEMERIS_TYPE":0,"CLASSIFICATION_TYPE":"U","NORAD_CAT_ID":15945,"ELEMENT_SET_NO":999,"REV_AT_EPOCH":17426,"BSTAR":5.1067305e-5,"MEAN_MOTION_DOT":4.77e-6,"MEAN_MOTION_DDOT":0},{"OBJECT_NAME":"SL-16 R/B","OBJECT_ID":"1985-097B","EPOCH":"2026-03-19T07:26:46.055328","MEAN_MOTION":14.16599881,"ECCENTRICITY":0.0009622,"INCLINATION":71.0013,"RA_OF_ASC_NODE":120.3003,"ARG_OF_PERICENTER":248.0114,"MEAN_ANOMALY":187.2002,"EPHEMERIS_TYPE":0,"CLASSIFICATION_TYPE":"U","NORAD_CAT_ID":16182,"ELEMENT_SET_NO":999,"REV_AT_EPOCH":8859,"BSTAR":0.00015785869,"MEAN_MOTION_DOT":2.67e-6,"MEAN_MOTION_DDOT":0}]
