SL-8 R/B                
1 11574U 79089B   26078.31708359  .00000205  00000+0  70097-4 0  9993
2 11574  74.0671  73.2201 0017004 244.8367 115.1027 14.42356621437494
SL-14 R/B               
1 11672U 80005B   26078.12359417  .00000498  00000+0  47802-4 0  9990
2 11672  82.5127 298.2865 0016893 128.5269 231.7468 14.90940708477892
SL-8 R/B                
1 12139U 81003B   26078.27123713  .00016126  00000+0  40901-3 0  9999
2 12139  82.9361 281.1625 0261436 145.2437 216.6194 15.11367258316121
SL-3 R/B                
1 12465U 81046B   26078.25785854  .00008065  00000+0  18596-3 0  9994
2 12465  81.2280 278.2515 0018794 348.9708  11.1120 15.42222626439902
SL-3 R/B                
1 12904U 81103B   26078.30861260  .00004114  00000+0  18152-3 0  9997
2 12904  81.1603 202.1485 0012429 252.1378 107.8499 15.21487811974696
SL-3 R/B                
1 13068U 82013B   26078.24700732  .00003137  00000+0  13490-3 0  9993
2 13068  81.1754 149.5697 0023164 145.7053 214.5680 15.22104589405808
SL-3 R/B                
1 13154U 82039B   26078.33085204  .00002056  00000+0  12349-3 0  9998
2 13154  81.1579 204.8458 0029240 292.8259  66.9879 15.10133715383097
SL-3 R/B                
1 13403U 82079B   26078.31300245  .00004956  00000+0  19620-3 0  9992
2 13403  81.1491 181.7153 0025380 132.8575 227.4796 15.24931945379168
SL-14 R/B               
1 13553U 82092B   26078.26964179  .00000392  00000+0  41295-4 0  9993
2 13553  82.5675 132.4387 0018737 269.3047 158.9700 14.86675043330355
SL-3 R/B                
1 13819U 83010B   26078.20735731  .00011351  00000+0  22547-3 0  9998
2 13819  81.1066 350.5776 0017074  19.6753 340.5146 15.46676912359411
SL-3 R/B                
1 14208U 83075B   26078.24783002  .00007735  00000+0  20354-3 0  9995
2 14208  97.6136  83.1882 0021133 190.2307 169.8511 15.38633825331621
COSMOS 1536             
1 14699U 84013A   26078.30679134  .00004635  00000+0  18999-3 0  9997
2 14699  82.5410  98.2869 0012620 245.0757 114.9170 15.23947072274088
SL-14 R/B               
1 14820U 84027B   26077.91833656  .00000466  00000+0  50487-4 0  9992
2 14820  82.5397 236.3556 0016725 305.8119  54.1543 14.85986060249003
SL-8 R/B                
1 15483U 85006B   26078.21190193  .00000306  00000+0  11011-3 0  9994
2 15483  74.0436 243.6247 0018052 158.8492  13.8164 14.37790192155397
SL-12 R/B(2)            
1 15772U 85042D   26078.33956170  .00000007  00000+0  24517-4 0  9997
2 15772  71.1068  67.3392 0032967 112.1980 350.0116 14.21985069115767
SL-14 R/B               
1 15945U 85069B   26078.30421791  .00000477  00000+0  51067-4 0  9992
2 15945  82.5299  15.8941 0019342 156.0973 204.1146 14.86443787174269
SL-16 R/B               
1 16182U 85097B   26078.31025527  .00000267  00000+0  15786-3 0  9999
2 16182  71.0013 120.3003 0009622 248.0114 187.2002 14.16599881 88592
